JINJUSAT-1B             
1 63210U 25052A   26068.66363707  .00019955  00000+0  68430-3 0  9998
2 63210  97.4113 325.4613 0005550  82.1930 277.9941 15.30194857 54866
STARLINK-34170          
1 63955U 25099D   26068.37103003  .00027631  00000+0  10100-2 0  9994
2 63955  43.0004 178.3629 0001271 244.0869 115.9851 15.27573721 47271
