[{"OBJECT_NAME":"JINJUSAT-1B","OBJECT_ID":"2025-052A","EPOCH":"2026-03-09T15:55:38.242848","MEAN_MOTION":15.30194857,"ECCENTRICITY":0.00055504,"INCLINATION":97.4113,"RA_OF_ASC_NODE":325.4613,"ARG_OF_PERICENTER":82.193,"MEAN_ANOMALY":277.9941,"EPHEMERIS_TYPE":0,"CLASSIFICATION_TYPE":"U","NORAD_CAT_ID":63210,"ELEMENT_SET_NO":999,"REV_AT_EPOCH":5486,"BSTAR":0.00068430401,"MEAN_MOTION_DOT":0.00019955,"MEAN_MOTION_DDOT":0},{"OBJECT_NAME":"STARLINK-34170","OBJECT_ID":"2025-099D","EPOCH":"2026-03-09T08:54:16.994592","MEAN_MOTION":15.27573721,"ECCENTRICITY":0.00012718,"INCLINATION":43.0004,"RA_OF_ASC_NODE":178.3629,"ARG_OF_PERICENTER":244.0869,"MEAN_ANOMALY":115.9851,"EPHEMERIS_TYPE":0,"CLASSIFICATION_TYPE":"U","NORAD_CAT_ID":63955,"ELEMENT_SET_NO":999,"REV_AT_EPOCH":4727,"BSTAR":0.0010100443,"MEAN_MOTION_DOT":0.00027631,"MEAN_MOTION_DDOT":0}]
